OBJECT_NAME,OBJECT_ID,EPOCH,MEAN_MOTION,ECCENTRICITY,INCLINATION,RA_OF_ASC_NODE,ARG_OF_PERICENTER,MEAN_ANOMALY,EPHEMERIS_TYPE,CLASSIFICATION_TYPE,NORAD_CAT_ID,ELEMENT_SET_NO,REV_AT_EPOCH,BSTAR,MEAN_MOTION_DOT,MEAN_MOTION_DDOT
STARLINK-37232,2026-133H,2026-07-05T14:00:03.000384,15.49257446,.00013094,53.1591,230.5419,95.6164,56.3934,0,U,69515,999,482,.19167425E-2,.107435E-2,0
STARLINK-37323,2026-133J,2026-07-05T14:00:03.000384,15.66455404,.00012478,53.1589,229.8815,58.2214,59.0253,0,U,69516,999,482,-.27278134E-1,-.2521988E-1,0
STARLINK-37357,2026-133K,2026-07-05T14:00:03.000384,15.49198331,.00007296,53.1600,230.8122,60.1849,317.6751,0,U,69517,999,482,.16727555E-2,.93337E-3,0
STARLINK-37408,2026-133L,2026-07-05T14:00:03.000384,15.55881767,.00007492,53.1599,230.1027,72.8431,295.2774,0,U,69518,999,482,-.39298167E-1,-.241849E-1,0
STARLINK-37570,2026-133M,2026-07-05T14:00:03.000384,15.49249532,.0001042,53.1590,230.5683,67.3037,69.8684,0,U,69519,999,482,.17730291E-2,.99213E-3,0
STARLINK-37510,2026-133N,2026-07-05T14:00:03.000384,15.49257482,.00005991,53.1591,230.5175,86.3062,76.7409,0,U,69520,999,482,.18162138E-2,.101702E-2,0
STARLINK-37586,2026-133P,2026-07-05T14:00:03.000384,15.63667568,.00011475,53.1597,229.7280,53.8571,137.1283,0,U,69521,999,482,-.14846313E-1,-.1260837E-1,0
STARLINK-37379,2026-133Q,2026-07-05T14:00:03.000384,15.49179340,.00017745,53.1602,230.2066,66.0768,249.1526,0,U,69522,999,487,.21062036E-2,.117935E-2,0
STARLINK-37429,2026-133R,2026-07-05T14:00:03.000384,15.49230376,.00014923,53.1593,230.6291,54.7081,51.6294,0,U,69523,999,487,.17288446E-2,.96632E-3,0
STARLINK-37352,2026-133S,2026-07-05T14:00:03.000384,15.49553691,.00014755,53.1600,230.1895,69.1666,253.6691,0,U,69524,999,487,-.78734259E-2,-.41929E-2,0
STARLINK-37490,2026-133T,2026-07-05T14:00:03.000384,15.57942500,.00015081,53.1593,229.7715,70.6786,97.2051,0,U,69525,999,487,-.37115E-1,-.246283E-1,0
STARLINK-37438,2026-133U,2026-07-05T14:00:03.000384,15.49243068,.00011166,53.1593,230.3467,39.4006,205.2164,0,U,69526,999,487,.18987879E-2,.106355E-2,0
STARLINK-37484,2026-133V,2026-07-05T14:00:03.000384,15.60295180,.00015552,53.1593,229.7086,74.5075,124.4271,0,U,69527,999,487,-.33772372E-1,-.2454276E-1,0
STARLINK-37523,2026-133W,2026-07-05T14:00:03.000384,15.49362623,.00013074,53.1602,230.1559,80.0842,258.2399,0,U,69528,999,487,-.21191115E-2,-.116783E-2,0
STARLINK-37369,2026-133X,2026-07-05T14:00:03.000384,15.49655394,.00010728,53.1603,230.1150,100.8421,257.0088,0,U,69529,999,487,-.10364849E-1,-.545054E-2,0
STARLINK-37670,2026-133Y,2026-07-05T14:00:03.000384,15.49254234,.00007372,53.1597,230.2828,53.0351,221.3762,0,U,69530,999,487,.18529921E-2,.103786E-2,0
STARLINK-37897,2026-133Z,2026-07-05T14:00:03.000384,15.57367947,.00014704,53.1592,229.6562,75.7242,146.7551,0,U,69531,999,482,-.37054866E-1,-.241315E-1,0
STARLINK-37933,2026-133AA,2026-07-05T14:00:03.000384,15.50417971,.00011063,53.1600,229.9469,66.1280,12.6109,0,U,69532,999,483,-.21608611E-1,-.1127645E-1,0
STARLINK-37890,2026-133AB,2026-07-05T14:00:03.000384,15.50386433,.00007683,53.1589,229.7957,45.2105,107.3434,0,U,69533,999,483,-.27723041E-1,-.1432559E-1,0
STARLINK-37407,2026-133AC,2026-07-05T14:00:03.000384,15.52682751,.00012312,53.1598,229.6744,69.6583,141.7412,0,U,69534,999,487,-.21935228E-1,-.1249865E-1,0
STARLINK-37888,2026-133AD,2026-07-05T14:00:03.000384,15.49828956,.00015028,53.1592,229.6828,56.5341,149.9689,0,U,69535,999,483,-.17594151E-1,-.917094E-2,0
STARLINK-37889,2026-133AE,2026-07-05T14:00:03.000384,15.49229293,.00011202,53.1590,230.5899,75.7947,51.7823,0,U,69536,999,482,.17403327E-2,.97281E-3,0
2026-134A,2026-134A,2026-07-05T14:51:49.150368,15.09394433,.00153106,97.6995,256.7950,204.1138,155.9376,0,U,69538,999,309,.42186058E-3,.6695E-4,0
2026-134B,2026-134B,2026-07-05T14:48:45.942624,15.09552467,.00154432,97.6972,256.7916,206.6911,153.3524,0,U,69539,999,308,.45797155E-3,.7307E-4,0
2026-134C,2026-134C,2026-07-05T06:50:53.871936,15.09580780,.0014822,97.6977,256.4608,208.9368,151.1040,0,U,69540,999,303,.54537E-3,.872E-4,0
2026-134D,2026-134D,2026-07-05T14:47:02.017248,15.09641766,.00158971,97.7018,256.8043,207.5611,152.4776,0,U,69541,999,308,.44231479E-3,.7073E-4,0
2026-134E,2026-134E,2026-07-05T06:49:22.587744,15.09660330,.0015602,97.7035,256.4765,209.3821,150.6532,0,U,69542,999,303,.55317E-3,.8868E-4,0
2026-134F,2026-134F,2026-07-05T06:48:29.846592,15.09705811,.0014896,97.6988,256.4657,211.1038,148.9310,0,U,69543,999,303,.5392E-3,.8651E-4,0
2026-134G,2026-134G,2026-07-05T14:44:04.661376,15.09793934,.00153777,97.7035,256.8111,210.7182,149.3148,0,U,69544,999,308,.43614655E-3,.7001E-4,0
