STARLINK-37232          
1 69515U 26133H   26186.58336806  .00107435  00000+0  19167-2 0  9998
2 69515  53.1591 230.5419 0001309  95.6164  56.3934 15.49257446  4821
STARLINK-37323          
1 69516U 26133J   26186.58336806 -.02521988  00000+0 -27278-1 0  9997
2 69516  53.1589 229.8815 0001247  58.2214  59.0253 15.66455404  4829
STARLINK-37357          
1 69517U 26133K   26186.58336806  .00093337  00000+0  16728-2 0  9995
2 69517  53.1600 230.8122 0000729  60.1849 317.6751 15.49198331  4827
STARLINK-37408          
1 69518U 26133L   26186.58336806 -.02418490  00000+0 -39298-1 0  9997
2 69518  53.1599 230.1027 0000749  72.8431 295.2774 15.55881767  4826
STARLINK-37570          
1 69519U 26133M   26186.58336806  .00099213  00000+0  17730-2 0  9990
2 69519  53.1590 230.5683 0001042  67.3037  69.8684 15.49249532  4824
STARLINK-37510          
1 69520U 26133N   26186.58336806  .00101702  00000+0  18162-2 0  9999
2 69520  53.1591 230.5175 0000599  86.3062  76.7409 15.49257482  4823
STARLINK-37586          
1 69521U 26133P   26186.58336806 -.01260837  00000+0 -14846-1 0  9992
2 69521  53.1597 229.7280 0001147  53.8571 137.1283 15.63667568  4829
STARLINK-37379          
1 69522U 26133Q   26186.58336806  .00117935  00000+0  21062-2 0  9999
2 69522  53.1602 230.2066 0001774  66.0768 249.1526 15.49179340  4875
STARLINK-37429          
1 69523U 26133R   26186.58336806  .00096632  00000+0  17288-2 0  9995
2 69523  53.1593 230.6291 0001492  54.7081  51.6294 15.49230376  4873
STARLINK-37352          
1 69524U 26133S   26186.58336806 -.00419290  00000+0 -78734-2 0  9990
2 69524  53.1600 230.1895 0001475  69.1666 253.6691 15.49553691  4871
STARLINK-37490          
1 69525U 26133T   26186.58336806 -.02462830  00000+0 -37115-1 0  9998
2 69525  53.1593 229.7715 0001508  70.6786  97.2051 15.57942500  4877
STARLINK-37438          
1 69526U 26133U   26186.58336806  .00106355  00000+0  18988-2 0  9990
2 69526  53.1593 230.3467 0001116  39.4006 205.2164 15.49243068  4873
STARLINK-37484          
1 69527U 26133V   26186.58336806 -.02454276  00000+0 -33772-1 0  9990
2 69527  53.1593 229.7086 0001555  74.5075 124.4271 15.60295180  4872
STARLINK-37523          
1 69528U 26133W   26186.58336806 -.00116783  00000+0 -21191-2 0  9990
2 69528  53.1602 230.1559 0001307  80.0842 258.2399 15.49362623  4875
STARLINK-37369          
1 69529U 26133X   26186.58336806 -.00545054  00000+0 -10365-1 0  9998
2 69529  53.1603 230.1150 0001072 100.8421 257.0088 15.49655394  4879
STARLINK-37670          
1 69530U 26133Y   26186.58336806  .00103786  00000+0  18530-2 0  9993
2 69530  53.1597 230.2828 0000737  53.0351 221.3762 15.49254234  4875
STARLINK-37897          
1 69531U 26133Z   26186.58336806 -.02413150  00000+0 -37055-1 0  9999
2 69531  53.1592 229.6562 0001470  75.7242 146.7551 15.57367947  4829
STARLINK-37933          
1 69532U 26133AA  26186.58336806 -.01127645  00000+0 -21609-1 0  9998
2 69532  53.1600 229.9469 0001106  66.1280  12.6109 15.50417971  4838
STARLINK-37890          
1 69533U 26133AB  26186.58336806 -.01432559  00000+0 -27723-1 0  9995
2 69533  53.1589 229.7957 0000768  45.2105 107.3434 15.50386433  4833
STARLINK-37407          
1 69534U 26133AC  26186.58336806 -.01249865  00000+0 -21935-1 0  9991
2 69534  53.1598 229.6744 0001231  69.6583 141.7412 15.52682751  4879
STARLINK-37888          
1 69535U 26133AD  26186.58336806 -.00917094  00000+0 -17594-1 0  9993
2 69535  53.1592 229.6828 0001502  56.5341 149.9689 15.49828956  4832
STARLINK-37889          
1 69536U 26133AE  26186.58336806  .00097281  00000+0  17403-2 0  9999
2 69536  53.1590 230.5899 0001120  75.7947  51.7823 15.49229293  4829
2026-134A               
1 69538U 26134A   26186.61931887  .00006695  00000+0  42186-3 0  9992
2 69538  97.6995 256.7950 0015310 204.1138 155.9376 15.09394433  3090
2026-134B               
1 69539U 26134B   26186.61719841  .00007307  00000+0  45797-3 0  9999
2 69539  97.6972 256.7916 0015443 206.6911 153.3524 15.09552467  3080
2026-134C               
1 69540U 26134C   26186.28534574  .00008720  00000+0  54537-3 0  9994
2 69540  97.6977 256.4608 0014821 208.9368 151.1040 15.09580781  3036
2026-134D               
1 69541U 26134D   26186.61599557  .00007073  00000+0  44231-3 0  9994
2 69541  97.7018 256.8043 0015897 207.5611 152.4776 15.09641766  3087
2026-134E               
1 69542U 26134E   26186.28428922  .00008868  00000+0  55317-3 0  9995
2 69542  97.7035 256.4765 0015601 209.3821 150.6532 15.09660330  3033
2026-134F               
1 69543U 26134F   26186.28367878  .00008651  00000+0  53920-3 0  9996
2 69543  97.6988 256.4657 0014895 211.1038 148.9310 15.09705811  3033
2026-134G               
1 69544U 26134G   26186.61394284  .00007001  00000+0  43615-3 0  9993
2 69544  97.7035 256.8111 0015377 210.7182 149.3148 15.09793934  3080
